CCSDS_OMM_VERS = 2.0
CREATION_DATE  = 
ORIGINATOR     = 

OBJECT_NAME    = HULIANWANG DIGUI-131
OBJECT_ID      = 2025-311D
CENTER_NAME    = EARTH
REF_FRAME      = TEME
TIME_SYSTEM    = UTC
MEAN_ELEMENT_THEORY = SGP/SGP4

EPOCH          = 2026-01-11T14:52:45.367392
MEAN_MOTION    = 13.90204780
ECCENTRICITY   = .00093737
INCLINATION    = 50.0068
RA_OF_ASC_NODE = 329.5072
ARG_OF_PERICENTER = 319.1095
MEAN_ANOMALY   = 40.9100

EPHEMERIS_TYPE = 0
CLASSIFICATION_TYPE = U
NORAD_CAT_ID   = 67239
ELEMENT_SET_NO = 999
REV_AT_EPOCH   = 232
BSTAR          = .11725827E-3
MEAN_MOTION_DOT = 0
MEAN_MOTION_DDOT = 0

CCSDS_OMM_VERS = 2.0
CREATION_DATE  = 
ORIGINATOR     = 

OBJECT_NAME    = HULIANWANG DIGUI-132
OBJECT_ID      = 2025-311E
CENTER_NAME    = EARTH
REF_FRAME      = TEME
TIME_SYSTEM    = UTC
MEAN_ELEMENT_THEORY = SGP/SGP4

EPOCH          = 2026-01-11T14:43:56.713440
MEAN_MOTION    = 13.90230691
ECCENTRICITY   = .00084558
INCLINATION    = 50.0080
RA_OF_ASC_NODE = 329.4783
ARG_OF_PERICENTER = 325.7778
MEAN_ANOMALY   = 34.2575

EPHEMERIS_TYPE = 0
CLASSIFICATION_TYPE = U
NORAD_CAT_ID   = 67240
ELEMENT_SET_NO = 999
REV_AT_EPOCH   = 232
BSTAR          = .10910139E-3
MEAN_MOTION_DOT = -.1E-6
MEAN_MOTION_DDOT = 0

CCSDS_OMM_VERS = 2.0
CREATION_DATE  = 
ORIGINATOR     = 

OBJECT_NAME    = HULIANWANG DIGUI-133
OBJECT_ID      = 2025-311F
CENTER_NAME    = EARTH
REF_FRAME      = TEME
TIME_SYSTEM    = UTC
MEAN_ELEMENT_THEORY = SGP/SGP4

EPOCH          = 2026-01-11T14:41:14.464608
MEAN_MOTION    = 13.90208665
ECCENTRICITY   = .00075709
INCLINATION    = 50.0124
RA_OF_ASC_NODE = 329.4787
ARG_OF_PERICENTER = 329.8344
MEAN_ANOMALY   = 30.2118

EPHEMERIS_TYPE = 0
CLASSIFICATION_TYPE = U
NORAD_CAT_ID   = 67241
ELEMENT_SET_NO = 999
REV_AT_EPOCH   = 232
BSTAR          = .11426418E-3
MEAN_MOTION_DOT = -.4E-7
MEAN_MOTION_DDOT = 0

CCSDS_OMM_VERS = 2.0
CREATION_DATE  = 
ORIGINATOR     = 

OBJECT_NAME    = HULIANWANG DIGUI-134
OBJECT_ID      = 2025-311G
CENTER_NAME    = EARTH
REF_FRAME      = TEME
TIME_SYSTEM    = UTC
MEAN_ELEMENT_THEORY = SGP/SGP4

EPOCH          = 2026-01-11T14:42:45.886176
MEAN_MOTION    = 13.90194691
ECCENTRICITY   = .00066984
INCLINATION    = 50.0054
RA_OF_ASC_NODE = 329.4679
ARG_OF_PERICENTER = 318.8229
MEAN_ANOMALY   = 41.2164

EPHEMERIS_TYPE = 0
CLASSIFICATION_TYPE = U
NORAD_CAT_ID   = 67242
ELEMENT_SET_NO = 999
REV_AT_EPOCH   = 232
BSTAR          = .11579782E-3
MEAN_MOTION_DOT = -.2E-7
MEAN_MOTION_DDOT = 0

CCSDS_OMM_VERS = 2.0
CREATION_DATE  = 
ORIGINATOR     = 

OBJECT_NAME    = HULIANWANG DIGUI-135
OBJECT_ID      = 2025-311H
CENTER_NAME    = EARTH
REF_FRAME      = TEME
TIME_SYSTEM    = UTC
MEAN_ELEMENT_THEORY = SGP/SGP4

EPOCH          = 2026-01-11T14:45:43.648992
MEAN_MOTION    = 13.90183736
ECCENTRICITY   = .0007918
INCLINATION    = 50.0041
RA_OF_ASC_NODE = 329.4754
ARG_OF_PERICENTER = 321.3443
MEAN_ANOMALY   = 38.6889

EPHEMERIS_TYPE = 0
CLASSIFICATION_TYPE = U
NORAD_CAT_ID   = 67243
ELEMENT_SET_NO = 999
REV_AT_EPOCH   = 232
BSTAR          = .1120333E-3
MEAN_MOTION_DOT = -.7E-7
MEAN_MOTION_DDOT = 0

CCSDS_OMM_VERS = 2.0
CREATION_DATE  = 
ORIGINATOR     = 

OBJECT_NAME    = HULIANWANG DIGUI-136
OBJECT_ID      = 2025-311J
CENTER_NAME    = EARTH
REF_FRAME      = TEME
TIME_SYSTEM    = UTC
MEAN_ELEMENT_THEORY = SGP/SGP4

EPOCH          = 2026-01-11T14:39:40.051008
MEAN_MOTION    = 13.90229570
ECCENTRICITY   = .00068426
INCLINATION    = 50.0113
RA_OF_ASC_NODE = 329.4698
ARG_OF_PERICENTER = 327.6931
MEAN_ANOMALY   = 32.3548

EPHEMERIS_TYPE = 0
CLASSIFICATION_TYPE = U
NORAD_CAT_ID   = 67244
ELEMENT_SET_NO = 999
REV_AT_EPOCH   = 232
BSTAR          = .10766175E-3
MEAN_MOTION_DOT = -.12E-6
MEAN_MOTION_DDOT = 0

CCSDS_OMM_VERS = 2.0
CREATION_DATE  = 
ORIGINATOR     = 

OBJECT_NAME    = CZ-8A R/B
OBJECT_ID      = 2025-311K
CENTER_NAME    = EARTH
REF_FRAME      = TEME
TIME_SYSTEM    = UTC
MEAN_ELEMENT_THEORY = SGP/SGP4

EPOCH          = 2026-01-11T13:49:00.768576
MEAN_MOTION    = 14.12609423
ECCENTRICITY   = .00889447
INCLINATION    = 50.0041
RA_OF_ASC_NODE = 327.2724
ARG_OF_PERICENTER = 139.4828
MEAN_ANOMALY   = 221.2746

EPHEMERIS_TYPE = 0
CLASSIFICATION_TYPE = U
NORAD_CAT_ID   = 67245
ELEMENT_SET_NO = 999
REV_AT_EPOCH   = 235
BSTAR          = -.18567008E-4
MEAN_MOTION_DOT = -.191E-5
MEAN_MOTION_DDOT = 0

CCSDS_OMM_VERS = 2.0
CREATION_DATE  = 
ORIGINATOR     = 

OBJECT_NAME    = FENGYUN 4C
OBJECT_ID      = 2025-312A
CENTER_NAME    = EARTH
REF_FRAME      = TEME
TIME_SYSTEM    = UTC
MEAN_ELEMENT_THEORY = SGP/SGP4

EPOCH          = 2026-01-11T14:51:18.456768
MEAN_MOTION    = 1.00272035
ECCENTRICITY   = .00026377
INCLINATION    = 0.0817
RA_OF_ASC_NODE = 245.3556
ARG_OF_PERICENTER = 43.0147
MEAN_ANOMALY   = 178.6597

EPHEMERIS_TYPE = 0
CLASSIFICATION_TYPE = U
NORAD_CAT_ID   = 67246
ELEMENT_SET_NO = 999
REV_AT_EPOCH   = 21
BSTAR          = 0
MEAN_MOTION_DOT = -.306E-5
MEAN_MOTION_DDOT = 0

CCSDS_OMM_VERS = 2.0
CREATION_DATE  = 
ORIGINATOR     = 

OBJECT_NAME    = CZ-3B R/B
OBJECT_ID      = 2025-312B
CENTER_NAME    = EARTH
REF_FRAME      = TEME
TIME_SYSTEM    = UTC
MEAN_ELEMENT_THEORY = SGP/SGP4

EPOCH          = 2026-01-11T06:00:22.928832
MEAN_MOTION    = 2.42789367
ECCENTRICITY   = .72150239
INCLINATION    = 28.4172
RA_OF_ASC_NODE = 328.1764
ARG_OF_PERICENTER = 188.9771
MEAN_ANOMALY   = 142.6179

EPHEMERIS_TYPE = 0
CLASSIFICATION_TYPE = U
NORAD_CAT_ID   = 67247
ELEMENT_SET_NO = 999
REV_AT_EPOCH   = 37
BSTAR          = .75771089E-3
MEAN_MOTION_DOT = .24507E-2
MEAN_MOTION_DDOT = .55166E-7

CCSDS_OMM_VERS = 2.0
CREATION_DATE  = 
ORIGINATOR     = 

OBJECT_NAME    = 2025-313A
OBJECT_ID      = 2025-313A
CENTER_NAME    = EARTH
REF_FRAME      = TEME
TIME_SYSTEM    = UTC
MEAN_ELEMENT_THEORY = SGP/SGP4

EPOCH          = 2026-01-11T14:14:00.608640
MEAN_MOTION    = 14.66785091
ECCENTRICITY   = .02804701
INCLINATION    = 97.5637
RA_OF_ASC_NODE = 88.0335
ARG_OF_PERICENTER = 119.6322
MEAN_ANOMALY   = 243.3134

EPHEMERIS_TYPE = 0
CLASSIFICATION_TYPE = U
NORAD_CAT_ID   = 67248
ELEMENT_SET_NO = 999
REV_AT_EPOCH   = 206
BSTAR          = .18337156E-3
MEAN_MOTION_DOT = .1796E-4
MEAN_MOTION_DDOT = 0

CCSDS_OMM_VERS = 2.0
CREATION_DATE  = 
ORIGINATOR     = 

OBJECT_NAME    = 2025-313B
OBJECT_ID      = 2025-313B
CENTER_NAME    = EARTH
REF_FRAME      = TEME
TIME_SYSTEM    = UTC
MEAN_ELEMENT_THEORY = SGP/SGP4

EPOCH          = 2026-01-11T14:26:13.468128
MEAN_MOTION    = 14.73170087
ECCENTRICITY   = .02977218
INCLINATION    = 97.5324
RA_OF_ASC_NODE = 88.1070
ARG_OF_PERICENTER = 123.9521
MEAN_ANOMALY   = 239.0371

EPHEMERIS_TYPE = 0
CLASSIFICATION_TYPE = U
NORAD_CAT_ID   = 67249
ELEMENT_SET_NO = 999
REV_AT_EPOCH   = 207
BSTAR          = .34812072E-3
MEAN_MOTION_DOT = .4533E-4
MEAN_MOTION_DDOT = 0

CCSDS_OMM_VERS = 2.0
CREATION_DATE  = 
ORIGINATOR     = 

OBJECT_NAME    = 2025-313C
OBJECT_ID      = 2025-313C
CENTER_NAME    = EARTH
REF_FRAME      = TEME
TIME_SYSTEM    = UTC
MEAN_ELEMENT_THEORY = SGP/SGP4

EPOCH          = 2026-01-11T15:09:08.038656
MEAN_MOTION    = 14.84584333
ECCENTRICITY   = .01632895
INCLINATION    = 97.6367
RA_OF_ASC_NODE = 88.5684
ARG_OF_PERICENTER = 134.0447
MEAN_ANOMALY   = 227.4353

EPHEMERIS_TYPE = 0
CLASSIFICATION_TYPE = U
NORAD_CAT_ID   = 67250
ELEMENT_SET_NO = 999
REV_AT_EPOCH   = 209
BSTAR          = .17503176E-2
MEAN_MOTION_DOT = .1875E-3
MEAN_MOTION_DDOT = 0

CCSDS_OMM_VERS = 2.0
CREATION_DATE  = 
ORIGINATOR     = 

OBJECT_NAME    = 2025-313D
OBJECT_ID      = 2025-313D
CENTER_NAME    = EARTH
REF_FRAME      = TEME
TIME_SYSTEM    = UTC
MEAN_ELEMENT_THEORY = SGP/SGP4

EPOCH          = 2026-01-11T14:09:49.912992
MEAN_MOTION    = 14.88724479
ECCENTRICITY   = .01522759
INCLINATION    = 97.5880
RA_OF_ASC_NODE = 88.5178
ARG_OF_PERICENTER = 126.8493
MEAN_ANOMALY   = 234.6800

EPHEMERIS_TYPE = 0
CLASSIFICATION_TYPE = U
NORAD_CAT_ID   = 67251
ELEMENT_SET_NO = 999
REV_AT_EPOCH   = 209
BSTAR          = .26826343E-3
MEAN_MOTION_DOT = .3053E-4
MEAN_MOTION_DDOT = 0

CCSDS_OMM_VERS = 2.0
CREATION_DATE  = 
ORIGINATOR     = 

OBJECT_NAME    = 2025-313E
OBJECT_ID      = 2025-313E
CENTER_NAME    = EARTH
REF_FRAME      = TEME
TIME_SYSTEM    = UTC
MEAN_ELEMENT_THEORY = SGP/SGP4

EPOCH          = 2026-01-11T11:43:11.763840
MEAN_MOTION    = 15.21593907
ECCENTRICITY   = .00108333
INCLINATION    = 97.4117
RA_OF_ASC_NODE = 88.7404
ARG_OF_PERICENTER = 168.7496
MEAN_ANOMALY   = 191.3984

EPHEMERIS_TYPE = 0
CLASSIFICATION_TYPE = U
NORAD_CAT_ID   = 67252
ELEMENT_SET_NO = 999
REV_AT_EPOCH   = 212
BSTAR          = .45158167E-3
MEAN_MOTION_DOT = .10141E-3
MEAN_MOTION_DDOT = 0

CCSDS_OMM_VERS = 2.0
CREATION_DATE  = 
ORIGINATOR     = 

OBJECT_NAME    = 2025-313F
OBJECT_ID      = 2025-313F
CENTER_NAME    = EARTH
REF_FRAME      = TEME
TIME_SYSTEM    = UTC
MEAN_ELEMENT_THEORY = SGP/SGP4

EPOCH          = 2026-01-11T11:53:47.457024
MEAN_MOTION    = 15.64786119
ECCENTRICITY   = .00102384
INCLINATION    = 97.1035
RA_OF_ASC_NODE = 88.7977
ARG_OF_PERICENTER = 187.8356
MEAN_ANOMALY   = 172.2746

EPHEMERIS_TYPE = 0
CLASSIFICATION_TYPE = U
NORAD_CAT_ID   = 67253
ELEMENT_SET_NO = 999
REV_AT_EPOCH   = 216
BSTAR          = .58621188E-3
MEAN_MOTION_DOT = .57318E-3
MEAN_MOTION_DDOT = 0

